CCSDS_OMM_VERS = 2.0
CREATION_DATE  = 
ORIGINATOR     = 

OBJECT_NAME    = STARLINK-35943
OBJECT_ID      = 2025-286C
CENTER_NAME    = EARTH
REF_FRAME      = TEME
TIME_SYSTEM    = UTC
MEAN_ELEMENT_THEORY = SGP/SGP4

EPOCH          = 2026-01-05T12:00:01.999296
MEAN_MOTION    = 15.45550423
ECCENTRICITY   = .000141
INCLINATION    = 53.1595
RA_OF_ASC_NODE = 294.1495
ARG_OF_PERICENTER = 92.1003
MEAN_ANOMALY   = 182.9083

EPHEMERIS_TYPE = 0
CLASSIFICATION_TYPE = U
NORAD_CAT_ID   = 66927
ELEMENT_SET_NO = 999
REV_AT_EPOCH   = 580
BSTAR          = -.4733E-1
MEAN_MOTION_DOT = -.2054532E-1
MEAN_MOTION_DDOT = 0

CCSDS_OMM_VERS = 2.0
CREATION_DATE  = 
ORIGINATOR     = 

OBJECT_NAME    = STARLINK-35944
OBJECT_ID      = 2025-286D
CENTER_NAME    = EARTH
REF_FRAME      = TEME
TIME_SYSTEM    = UTC
MEAN_ELEMENT_THEORY = SGP/SGP4

EPOCH          = 2026-01-05T12:00:01.999296
MEAN_MOTION    = 15.39586797
ECCENTRICITY   = .0001388
INCLINATION    = 53.1598
RA_OF_ASC_NODE = 294.2747
ARG_OF_PERICENTER = 90.6263
MEAN_ANOMALY   = 121.1536

EPHEMERIS_TYPE = 0
CLASSIFICATION_TYPE = U
NORAD_CAT_ID   = 66928
ELEMENT_SET_NO = 999
REV_AT_EPOCH   = 580
BSTAR          = .45806E-3
MEAN_MOTION_DOT = .17945E-3
MEAN_MOTION_DDOT = 0

CCSDS_OMM_VERS = 2.0
CREATION_DATE  = 
ORIGINATOR     = 

OBJECT_NAME    = STARLINK-36169
OBJECT_ID      = 2025-286E
CENTER_NAME    = EARTH
REF_FRAME      = TEME
TIME_SYSTEM    = UTC
MEAN_ELEMENT_THEORY = SGP/SGP4

EPOCH          = 2026-01-05T12:00:01.999296
MEAN_MOTION    = 15.39745603
ECCENTRICITY   = .0001414
INCLINATION    = 53.1593
RA_OF_ASC_NODE = 294.3778
ARG_OF_PERICENTER = 124.5695
MEAN_ANOMALY   = 35.7057

EPHEMERIS_TYPE = 0
CLASSIFICATION_TYPE = U
NORAD_CAT_ID   = 66929
ELEMENT_SET_NO = 999
REV_AT_EPOCH   = 580
BSTAR          = -.73838E-2
MEAN_MOTION_DOT = -.286125E-2
MEAN_MOTION_DDOT = 0

CCSDS_OMM_VERS = 2.0
CREATION_DATE  = 
ORIGINATOR     = 

OBJECT_NAME    = STARLINK-36206
OBJECT_ID      = 2025-286F
CENTER_NAME    = EARTH
REF_FRAME      = TEME
TIME_SYSTEM    = UTC
MEAN_ELEMENT_THEORY = SGP/SGP4

EPOCH          = 2026-01-05T01:29:18.749184
MEAN_MOTION    = 15.49349084
ECCENTRICITY   = .0001742
INCLINATION    = 53.1600
RA_OF_ASC_NODE = 296.2251
ARG_OF_PERICENTER = 79.0010
MEAN_ANOMALY   = 281.1195

EPHEMERIS_TYPE = 0
CLASSIFICATION_TYPE = U
NORAD_CAT_ID   = 66930
ELEMENT_SET_NO = 999
REV_AT_EPOCH   = 564
BSTAR          = .147774E-2
MEAN_MOTION_DOT = .82731E-3
MEAN_MOTION_DDOT = 0

CCSDS_OMM_VERS = 2.0
CREATION_DATE  = 
ORIGINATOR     = 

OBJECT_NAME    = STARLINK-36130
OBJECT_ID      = 2025-286G
CENTER_NAME    = EARTH
REF_FRAME      = TEME
TIME_SYSTEM    = UTC
MEAN_ELEMENT_THEORY = SGP/SGP4

EPOCH          = 2026-01-05T02:17:39.883200
MEAN_MOTION    = 15.39623051
ECCENTRICITY   = .00010254
INCLINATION    = 53.1606
RA_OF_ASC_NODE = 296.4406
ARG_OF_PERICENTER = 81.3990
MEAN_ANOMALY   = 278.7131

EPHEMERIS_TYPE = 0
CLASSIFICATION_TYPE = U
NORAD_CAT_ID   = 66931
ELEMENT_SET_NO = 999
REV_AT_EPOCH   = 564
BSTAR          = .16619964E-2
MEAN_MOTION_DOT = .66669E-3
MEAN_MOTION_DDOT = 0

CCSDS_OMM_VERS = 2.0
CREATION_DATE  = 
ORIGINATOR     = 

OBJECT_NAME    = STARLINK-36177
OBJECT_ID      = 2025-286H
CENTER_NAME    = EARTH
REF_FRAME      = TEME
TIME_SYSTEM    = UTC
MEAN_ELEMENT_THEORY = SGP/SGP4

EPOCH          = 2026-01-05T12:00:01.999296
MEAN_MOTION    = 15.39773587
ECCENTRICITY   = .0001149
INCLINATION    = 53.1598
RA_OF_ASC_NODE = 294.3245
ARG_OF_PERICENTER = 69.7568
MEAN_ANOMALY   = 116.2631

EPHEMERIS_TYPE = 0
CLASSIFICATION_TYPE = U
NORAD_CAT_ID   = 66932
ELEMENT_SET_NO = 999
REV_AT_EPOCH   = 580
BSTAR          = -.85065E-2
MEAN_MOTION_DOT = -.32808E-2
MEAN_MOTION_DDOT = 0

CCSDS_OMM_VERS = 2.0
CREATION_DATE  = 
ORIGINATOR     = 

OBJECT_NAME    = STARLINK-36157
OBJECT_ID      = 2025-286J
CENTER_NAME    = EARTH
REF_FRAME      = TEME
TIME_SYSTEM    = UTC
MEAN_ELEMENT_THEORY = SGP/SGP4

EPOCH          = 2026-01-03T06:06:52.191072
MEAN_MOTION    = 15.49386556
ECCENTRICITY   = .0000147
INCLINATION    = 53.1603
RA_OF_ASC_NODE = 304.8537
ARG_OF_PERICENTER = 328.0965
MEAN_ANOMALY   = 32.0035

EPHEMERIS_TYPE = 0
CLASSIFICATION_TYPE = U
NORAD_CAT_ID   = 66933
ELEMENT_SET_NO = 999
REV_AT_EPOCH   = 536
BSTAR          = .30092E-2
MEAN_MOTION_DOT = .171097E-2
MEAN_MOTION_DDOT = 0

CCSDS_OMM_VERS = 2.0
CREATION_DATE  = 
ORIGINATOR     = 

OBJECT_NAME    = STARLINK-36153
OBJECT_ID      = 2025-286K
CENTER_NAME    = EARTH
REF_FRAME      = TEME
TIME_SYSTEM    = UTC
MEAN_ELEMENT_THEORY = SGP/SGP4

EPOCH          = 2026-01-05T05:11:14.394912
MEAN_MOTION    = 15.39652255
ECCENTRICITY   = .0001075
INCLINATION    = 53.1601
RA_OF_ASC_NODE = 295.7654
ARG_OF_PERICENTER = 102.8488
MEAN_ANOMALY   = 257.2637

EPHEMERIS_TYPE = 0
CLASSIFICATION_TYPE = U
NORAD_CAT_ID   = 66934
ELEMENT_SET_NO = 999
REV_AT_EPOCH   = 566
BSTAR          = .20939E-2
MEAN_MOTION_DOT = .84378E-3
MEAN_MOTION_DDOT = 0

CCSDS_OMM_VERS = 2.0
CREATION_DATE  = 
ORIGINATOR     = 

OBJECT_NAME    = STARLINK-36127
OBJECT_ID      = 2025-286L
CENTER_NAME    = EARTH
REF_FRAME      = TEME
TIME_SYSTEM    = UTC
MEAN_ELEMENT_THEORY = SGP/SGP4

EPOCH          = 2026-01-05T02:24:20.817216
MEAN_MOTION    = 15.39645609
ECCENTRICITY   = .00012932
INCLINATION    = 53.1602
RA_OF_ASC_NODE = 296.4630
ARG_OF_PERICENTER = 75.6686
MEAN_ANOMALY   = 284.4462

EPHEMERIS_TYPE = 0
CLASSIFICATION_TYPE = U
NORAD_CAT_ID   = 66935
ELEMENT_SET_NO = 999
REV_AT_EPOCH   = 564
BSTAR          = .98117692E-3
MEAN_MOTION_DOT = .39081E-3
MEAN_MOTION_DDOT = 0

CCSDS_OMM_VERS = 2.0
CREATION_DATE  = 
ORIGINATOR     = 

OBJECT_NAME    = STARLINK-36160
OBJECT_ID      = 2025-286M
CENTER_NAME    = EARTH
REF_FRAME      = TEME
TIME_SYSTEM    = UTC
MEAN_ELEMENT_THEORY = SGP/SGP4

EPOCH          = 2026-01-05T12:00:01.999296
MEAN_MOTION    = 15.39605885
ECCENTRICITY   = .0001678
INCLINATION    = 53.1600
RA_OF_ASC_NODE = 294.2228
ARG_OF_PERICENTER = 104.1839
MEAN_ANOMALY   = 133.2981

EPHEMERIS_TYPE = 0
CLASSIFICATION_TYPE = U
NORAD_CAT_ID   = 66936
ELEMENT_SET_NO = 999
REV_AT_EPOCH   = 580
BSTAR          = .43385E-3
MEAN_MOTION_DOT = .16985E-3
MEAN_MOTION_DDOT = 0

CCSDS_OMM_VERS = 2.0
CREATION_DATE  = 
ORIGINATOR     = 

OBJECT_NAME    = STARLINK-36165
OBJECT_ID      = 2025-286N
CENTER_NAME    = EARTH
REF_FRAME      = TEME
TIME_SYSTEM    = UTC
MEAN_ELEMENT_THEORY = SGP/SGP4

EPOCH          = 2026-01-05T12:00:01.999296
MEAN_MOTION    = 15.46667884
ECCENTRICITY   = .0001096
INCLINATION    = 53.1589
RA_OF_ASC_NODE = 294.1077
ARG_OF_PERICENTER = 103.6164
MEAN_ANOMALY   = 191.4583

EPHEMERIS_TYPE = 0
CLASSIFICATION_TYPE = U
NORAD_CAT_ID   = 66937
ELEMENT_SET_NO = 999
REV_AT_EPOCH   = 580
BSTAR          = -.46379E-1
MEAN_MOTION_DOT = -.2088433E-1
MEAN_MOTION_DDOT = 0

CCSDS_OMM_VERS = 2.0
CREATION_DATE  = 
ORIGINATOR     = 

OBJECT_NAME    = STARLINK-36155
OBJECT_ID      = 2025-286P
CENTER_NAME    = EARTH
REF_FRAME      = TEME
TIME_SYSTEM    = UTC
MEAN_ELEMENT_THEORY = SGP/SGP4

EPOCH          = 2026-01-05T04:31:08.364000
MEAN_MOTION    = 15.49344282
ECCENTRICITY   = .00014299
INCLINATION    = 53.1591
RA_OF_ASC_NODE = 295.5900
ARG_OF_PERICENTER = 70.8689
MEAN_ANOMALY   = 289.2475

EPHEMERIS_TYPE = 0
CLASSIFICATION_TYPE = U
NORAD_CAT_ID   = 66938
ELEMENT_SET_NO = 999
REV_AT_EPOCH   = 566
BSTAR          = .18538846E-2
MEAN_MOTION_DOT = .104172E-2
MEAN_MOTION_DDOT = 0

