STARLINK-35943          
1 66927U 25286C   26005.50002314 -.02054532  00000+0 -47330-1 0  9991
2 66927  53.1595 294.1495 0001410  92.1003 182.9083 15.45550423  5803
STARLINK-35944          
1 66928U 25286D   26005.50002314  .00017945  00000+0  45806-3 0  9993
2 66928  53.1598 294.2747 0001388  90.6263 121.1536 15.39586797  5807
STARLINK-36169          
1 66929U 25286E   26005.50002314 -.00286125  00000+0 -73838-2 0  9999
2 66929  53.1593 294.3778 0001414 124.5695  35.7057 15.39745603  5805
STARLINK-36206          
1 66930U 25286F   26005.06202256  .00082731  00000+0  14777-2 0  9991
2 66930  53.1600 296.2251 0001742  79.0010 281.1195 15.49349084  5648
STARLINK-36130          
1 66931U 25286G   26005.09560050  .00066669  00000+0  16620-2 0  9995
2 66931  53.1606 296.4406 0001025  81.3990 278.7131 15.39623051  5646
STARLINK-36177          
1 66932U 25286H   26005.50002314 -.00328080  00000+0 -85065-2 0  9995
2 66932  53.1598 294.3245 0001149  69.7568 116.2631 15.39773587  5802
STARLINK-36157          
1 66933U 25286J   26003.25477073  .00171097  00000+0  30092-2 0  9996
2 66933  53.1603 304.8537 0000147 328.0965  32.0035 15.49386556  5361
STARLINK-36153          
1 66934U 25286K   26005.21613883  .00084378  00000+0  20939-2 0  9990
2 66934  53.1601 295.7654 0001075 102.8488 257.2637 15.39652255  5660
STARLINK-36127          
1 66935U 25286L   26005.10024094  .00039081  00000+0  98118-3 0  9995
2 66935  53.1602 296.4630 0001293  75.6686 284.4462 15.39645609  5644
STARLINK-36160          
1 66936U 25286M   26005.50002314  .00016985  00000+0  43385-3 0  9995
2 66936  53.1600 294.2228 0001678 104.1839 133.2981 15.39605885  5804
STARLINK-36165          
1 66937U 25286N   26005.50002314 -.02088433  00000+0 -46379-1 0  9991
2 66937  53.1589 294.1077 0001096 103.6164 191.4583 15.46667884  5800
STARLINK-36155          
1 66938U 25286P   26005.18829125  .00104172  00000+0  18539-2 0  9996
2 66938  53.1591 295.5900 0001429  70.8689 289.2475 15.49344282  5668
